{
    "links": {
        "self": "http://www.neowsapp.com/rest/v1/neo/3825564?api_key=iIulBulltgU6a56xZRHN4H3l9WmuAYTsLGpBGhQ2"
    },
    "id": "3825564",
    "neo_reference_id": "3825564",
    "name": "(2018 NY)",
    "designation": "2018 NY",
    "nasa_jpl_url": "http://ssd.jpl.nasa.gov/sbdb.cgi?sstr=3825564",
    "absolute_magnitude_h": 26.5,
    "estimated_diameter": {
        "kilometers": {
            "estimated_diameter_min": 0.0133215567,
            "estimated_diameter_max": 0.0297879063
        },
        "meters": {
            "estimated_diameter_min": 13.3215566698,
            "estimated_diameter_max": 29.7879062798
        },
        "miles": {
            "estimated_diameter_min": 0.008277629,
            "estimated_diameter_max": 0.0185093411
        },
        "feet": {
            "estimated_diameter_min": 43.7058959846,
            "estimated_diameter_max": 97.7293544391
        }
    },
    "is_potentially_hazardous_asteroid": false,
    "close_approach_data": [
        {
            "close_approach_date": "2018-07-05",
            "close_approach_date_full": "2018-Jul-05 08:38",
            "epoch_date_close_approach": 1530779880000,
            "relative_velocity": {
                "kilometers_per_second": "7.7176968165",
                "kilometers_per_hour": "27783.7085395739",
                "miles_per_hour": "17263.7160089369"
            },
            "miss_distance": {
                "astronomical": "0.0204544375",
                "lunar": "7.9567761875",
                "kilometers": "3059940.282048125",
                "miles": "1901358.724089125"
            },
            "orbiting_body": "Earth"
        }
    ],
    "orbital_data": {
        "orbit_id": "3",
        "orbit_determination_date": "2018-07-29 06:21:27",
        "first_observation_date": "2018-07-08",
        "last_observation_date": "2018-07-19",
        "data_arc_in_days": 11,
        "observations_used": 18,
        "orbit_uncertainty": "8",
        "minimum_orbit_intersection": ".0203718",
        "jupiter_tisserand_invariant": "3.560",
        "epoch_osculation": "2458316.5",
        "eccentricity": ".5078158576092691",
        "semi_major_axis": "2.104515747317331",
        "inclination": "6.844513579961752",
        "ascending_node_longitude": "285.2302783907793",
        "orbital_period": "1115.133073132476",
        "perihelion_distance": "1.035809278241169",
        "perihelion_argument": "353.9133030295386",
        "aphelion_distance": "3.173222216393494",
        "perihelion_time": "2458301.448447885012",
        "mean_anomaly": "4.859114030377219",
        "mean_motion": ".3228314258393738",
        "equinox": "J2000",
        "orbit_class": {
            "orbit_class_type": "AMO",
            "orbit_class_description": "Near-Earth asteroid orbits similar to that of 1221 Amor",
            "orbit_class_range": "1.017 AU < q (perihelion) < 1.3 AU"
        }
    },
    "is_sentry_object": false
}